IRIDIUM 171             
1 43929U 19002H   23314.47224869  .00000605  00000+0  20903-3 0  9991
2 43929  86.4017  30.6807 0002388  96.9097 263.2371 14.34209057252839
IRIDIUM 170             
1 43930U 19002J   23313.70470528  .00002006  00000+0  31435-3 0  9992
2 43930  86.6141  30.8553 0002227  91.2948 268.8524 14.72241724259417
IRIDIUM 167             
1 43931U 19002K   23313.76822777  .00000383  00000+0  12976-3 0  9991
2 43931  86.4013  30.7889 0002207  96.9292 263.2155 14.34217711252731
IRIDIUM 181             
1 56726U 23068S   23314.09631214  .00000863  00000+0  24901-3 0  9999
2 56726  86.8623  73.7057 0003113 107.3543 252.8000 14.43583272 25385
IRIDIUM 177             
1 56727U 23068T   23314.38462187  .00002886  00000+0  37657-3 0  9992
2 56727  86.1978  59.6993 0002248  95.4382 264.7095 14.80200446 25869
IRIDIUM 174             
1 56728U 23068U   23314.37920476  .00002939  00000+0  38343-3 0  9994
2 56728  86.2020  59.7923 0004886 123.7276 236.4411 14.80199829 25860
IRIDIUM 178             
1 56729U 23068V   23314.37386552  .00002909  00000+0  37954-3 0  9990
2 56729  86.5756  66.8356 0002308  84.0665 276.0820 14.80210553 25869
IRIDIUM 179             
1 56730U 23068W   23314.36842637  .00002896  00000+0  37789-3 0  9993
2 56730  86.6764  68.2024 0001715  78.2034 281.9380 14.80209891 25864
